{
    "links": {
        "self": "http://www.neowsapp.com/rest/v1/neo/3757049?api_key=iIulBulltgU6a56xZRHN4H3l9WmuAYTsLGpBGhQ2"
    },
    "id": "3757049",
    "neo_reference_id": "3757049",
    "name": "(2016 PX8)",
    "designation": "2016 PX8",
    "nasa_jpl_url": "http://ssd.jpl.nasa.gov/sbdb.cgi?sstr=3757049",
    "absolute_magnitude_h": 27.0,
    "estimated_diameter": {
        "kilometers": {
            "estimated_diameter_min": 0.0105816886,
            "estimated_diameter_max": 0.023661375
        },
        "meters": {
            "estimated_diameter_min": 10.5816885933,
            "estimated_diameter_max": 23.6613750114
        },
        "miles": {
            "estimated_diameter_min": 0.0065751544,
            "estimated_diameter_max": 0.0147024923
        },
        "feet": {
            "estimated_diameter_min": 34.7168272045,
            "estimated_diameter_max": 77.6291855923
        }
    },
    "is_potentially_hazardous_asteroid": false,
    "close_approach_data": [
        {
            "close_approach_date": "2016-08-11",
            "close_approach_date_full": "2016-Aug-11 08:34",
            "epoch_date_close_approach": 1470904440000,
            "relative_velocity": {
                "kilometers_per_second": "9.8360030026",
                "kilometers_per_hour": "35409.6108095313",
                "miles_per_hour": "22002.1551166223"
            },
            "miss_distance": {
                "astronomical": "0.0195167934",
                "lunar": "7.5920326326",
                "kilometers": "2919670.721870058",
                "miles": "1814199.2610324804"
            },
            "orbiting_body": "Earth"
        }
    ],
    "orbital_data": {
        "orbit_id": "3",
        "orbit_determination_date": "2017-04-06 08:24:39",
        "first_observation_date": "2016-08-08",
        "last_observation_date": "2016-08-10",
        "data_arc_in_days": 2,
        "observations_used": 15,
        "orbit_uncertainty": "8",
        "minimum_orbit_intersection": ".0154664",
        "jupiter_tisserand_invariant": "3.487",
        "epoch_osculation": "2457609.5",
        "eccentricity": ".5439531988919546",
        "semi_major_axis": "2.154099461205222",
        "inclination": "7.185926414552156",
        "ascending_node_longitude": "135.7930279922741",
        "orbital_period": "1154.774154054299",
        "perihelion_distance": ".9823701685512054",
        "perihelion_argument": "212.7910956965197",
        "aphelion_distance": "3.325828753859238",
        "perihelion_time": "2457635.737068977014",
        "mean_anomaly": "351.8206128890542",
        "mean_motion": ".3117492703972247",
        "equinox": "J2000",
        "orbit_class": {
            "orbit_class_type": "APO",
            "orbit_class_description": "Near-Earth asteroid orbits which cross the Earth’s orbit similar to that of 1862 Apollo",
            "orbit_class_range": "a (semi-major axis) > 1.0 AU; q (perihelion) < 1.017 AU"
        }
    },
    "is_sentry_object": false
}